COSMOS 2242             
1 22626U 93024A   26084.41504669  .00002239  00000+0  19399-3 0  9990
2 22626  82.5159 251.6702 0014945 250.8336 109.1268 14.96613421782745
SL-16 R/B               
1 22803U 93059B   26084.42825088 -.00000056  00000+0 -41170-5 0  9998
2 22803  70.9926 337.9396 0017591 193.7655 166.2991 14.17235444681766
ARIANE 40 R/B           
1 22830U 93061H   26084.48022890  .00000217  00000+0  95430-4 0  9991
2 22830  98.4888 153.0542 0009829 232.9906 127.0380 14.32869107696363
COSMOS 2278             
1 23087U 94023A   26084.43979655 -.00000250  00000+0 -10586-3 0  9997
2 23087  71.0527 142.1486 0009034 347.9958  12.0948 14.14376747647039
SL-16 R/B               
1 23088U 94023B   26084.62059329  .00000309  00000+0  18430-3 0  9995
2 23088  71.0008  37.4282 0005450 270.5028  89.5470 14.15012900648344
SL-16 R/B               
1 23343U 94074B   26084.34021796  .00000458  00000+0  68016-4 0  9992
2 23343  97.7087 114.5228 0007036 158.5230 212.7284 14.79424975689560
SL-16 R/B               
1 23405U 94077B   26084.10133539  .00000094  00000+0  72709-4 0  9997
2 23405  70.9841 320.0679 0002176 198.4264 161.6781 14.15568755618419
ARIANE 40+ R/B          
1 23561U 95021B   26084.44374704  .00000292  00000+0  10701-3 0  9991
2 23561  98.4469 155.7108 0007966  95.8031 276.0236 14.39783404621514
SL-16 R/B               
1 23705U 95058B   26084.60373460 -.00000201  00000+0 -78379-4 0  9995
2 23705  71.0212 146.8466 0010129  96.2802 263.9475 14.15500284570106
SL-16 R/B               
1 24298U 96051B   26084.60500401  .00000086  00000+0  73444-4 0  9991
2 24298  70.7591 141.5543 0013757 122.6136 237.6313 14.12420062523897
ORBVIEW 2 (SEASTAR)     
1 24883U 97037A   26084.37959863  .00000290  00000+0  11695-3 0  9996
2 24883  98.8595 249.1094 0002568  38.5994 321.5373 14.35505525510723
SL-16 R/B               
1 25400U 98043G   26084.58849028  .00000082  00000+0  53276-4 0  9995
2 25400  98.8281  38.0672 0009368 334.4546  25.6169 14.26053338441250
