CCSDS_OMM_VERS = 2.0
CREATION_DATE  = 
ORIGINATOR     = 

OBJECT_NAME    = COSMOS 2242
OBJECT_ID      = 1993-024A
CENTER_NAME    = EARTH
REF_FRAME      = TEME
TIME_SYSTEM    = UTC
MEAN_ELEMENT_THEORY = SGP/SGP4

EPOCH          = 2026-03-25T09:57:40.034016
MEAN_MOTION    = 14.96613421
ECCENTRICITY   = .00149457
INCLINATION    = 82.5159
RA_OF_ASC_NODE = 251.6702
ARG_OF_PERICENTER = 250.8336
MEAN_ANOMALY   = 109.1268

EPHEMERIS_TYPE = 0
CLASSIFICATION_TYPE = U
NORAD_CAT_ID   = 22626
ELEMENT_SET_NO = 999
REV_AT_EPOCH   = 78274
BSTAR          = .19399272E-3
MEAN_MOTION_DOT = .2239E-4
MEAN_MOTION_DDOT = 0

CCSDS_OMM_VERS = 2.0
CREATION_DATE  = 
ORIGINATOR     = 

OBJECT_NAME    = SL-16 R/B
OBJECT_ID      = 1993-059B
CENTER_NAME    = EARTH
REF_FRAME      = TEME
TIME_SYSTEM    = UTC
MEAN_ELEMENT_THEORY = SGP/SGP4

EPOCH          = 2026-03-25T10:16:40.876032
MEAN_MOTION    = 14.17235444
ECCENTRICITY   = .00175913
INCLINATION    = 70.9926
RA_OF_ASC_NODE = 337.9396
ARG_OF_PERICENTER = 193.7655
MEAN_ANOMALY   = 166.2991

EPHEMERIS_TYPE = 0
CLASSIFICATION_TYPE = U
NORAD_CAT_ID   = 22803
ELEMENT_SET_NO = 999
REV_AT_EPOCH   = 68176
BSTAR          = -.4116964E-5
MEAN_MOTION_DOT = -.56E-6
MEAN_MOTION_DDOT = 0

CCSDS_OMM_VERS = 2.0
CREATION_DATE  = 
ORIGINATOR     = 

OBJECT_NAME    = ARIANE 40 R/B
OBJECT_ID      = 1993-061H
CENTER_NAME    = EARTH
REF_FRAME      = TEME
TIME_SYSTEM    = UTC
MEAN_ELEMENT_THEORY = SGP/SGP4

EPOCH          = 2026-03-25T11:31:31.776960
MEAN_MOTION    = 14.32869107
ECCENTRICITY   = .00098295
INCLINATION    = 98.4888
RA_OF_ASC_NODE = 153.0542
ARG_OF_PERICENTER = 232.9906
MEAN_ANOMALY   = 127.0380

EPHEMERIS_TYPE = 0
CLASSIFICATION_TYPE = U
NORAD_CAT_ID   = 22830
ELEMENT_SET_NO = 999
REV_AT_EPOCH   = 69636
BSTAR          = .954297E-4
MEAN_MOTION_DOT = .217E-5
MEAN_MOTION_DDOT = 0

CCSDS_OMM_VERS = 2.0
CREATION_DATE  = 
ORIGINATOR     = 

OBJECT_NAME    = COSMOS 2278
OBJECT_ID      = 1994-023A
CENTER_NAME    = EARTH
REF_FRAME      = TEME
TIME_SYSTEM    = UTC
MEAN_ELEMENT_THEORY = SGP/SGP4

EPOCH          = 2026-03-25T10:33:18.421920
MEAN_MOTION    = 14.14376747
ECCENTRICITY   = .0009034
INCLINATION    = 71.0527
RA_OF_ASC_NODE = 142.1486
ARG_OF_PERICENTER = 347.9958
MEAN_ANOMALY   = 12.0948

EPHEMERIS_TYPE = 0
CLASSIFICATION_TYPE = U
NORAD_CAT_ID   = 23087
ELEMENT_SET_NO = 999
REV_AT_EPOCH   = 64703
BSTAR          = -.10586391E-3
MEAN_MOTION_DOT = -.25E-5
MEAN_MOTION_DDOT = 0

CCSDS_OMM_VERS = 2.0
CREATION_DATE  = 
ORIGINATOR     = 

OBJECT_NAME    = SL-16 R/B
OBJECT_ID      = 1994-023B
CENTER_NAME    = EARTH
REF_FRAME      = TEME
TIME_SYSTEM    = UTC
MEAN_ELEMENT_THEORY = SGP/SGP4

EPOCH          = 2026-03-25T14:53:39.260256
MEAN_MOTION    = 14.15012900
ECCENTRICITY   = .00054504
INCLINATION    = 71.0008
RA_OF_ASC_NODE = 37.4282
ARG_OF_PERICENTER = 270.5028
MEAN_ANOMALY   = 89.5470

EPHEMERIS_TYPE = 0
CLASSIFICATION_TYPE = U
NORAD_CAT_ID   = 23088
ELEMENT_SET_NO = 999
REV_AT_EPOCH   = 64834
BSTAR          = .18429823E-3
MEAN_MOTION_DOT = .309E-5
MEAN_MOTION_DDOT = 0

CCSDS_OMM_VERS = 2.0
CREATION_DATE  = 
ORIGINATOR     = 

OBJECT_NAME    = SL-16 R/B
OBJECT_ID      = 1994-074B
CENTER_NAME    = EARTH
REF_FRAME      = TEME
TIME_SYSTEM    = UTC
MEAN_ELEMENT_THEORY = SGP/SGP4

EPOCH          = 2026-03-25T08:09:54.831744
MEAN_MOTION    = 14.79424975
ECCENTRICITY   = .0007036
INCLINATION    = 97.7087
RA_OF_ASC_NODE = 114.5228
ARG_OF_PERICENTER = 158.5230
MEAN_ANOMALY   = 212.7284

EPHEMERIS_TYPE = 0
CLASSIFICATION_TYPE = U
NORAD_CAT_ID   = 23343
ELEMENT_SET_NO = 999
REV_AT_EPOCH   = 68956
BSTAR          = .68016128E-4
MEAN_MOTION_DOT = .458E-5
MEAN_MOTION_DDOT = 0

CCSDS_OMM_VERS = 2.0
CREATION_DATE  = 
ORIGINATOR     = 

OBJECT_NAME    = SL-16 R/B
OBJECT_ID      = 1994-077B
CENTER_NAME    = EARTH
REF_FRAME      = TEME
TIME_SYSTEM    = UTC
MEAN_ELEMENT_THEORY = SGP/SGP4

EPOCH          = 2026-03-25T02:25:55.377696
MEAN_MOTION    = 14.15568755
ECCENTRICITY   = .00021764
INCLINATION    = 70.9841
RA_OF_ASC_NODE = 320.0679
ARG_OF_PERICENTER = 198.4264
MEAN_ANOMALY   = 161.6781

EPHEMERIS_TYPE = 0
CLASSIFICATION_TYPE = U
NORAD_CAT_ID   = 23405
ELEMENT_SET_NO = 999
REV_AT_EPOCH   = 61841
BSTAR          = .72708701E-4
MEAN_MOTION_DOT = .94E-6
MEAN_MOTION_DDOT = 0

CCSDS_OMM_VERS = 2.0
CREATION_DATE  = 
ORIGINATOR     = 

OBJECT_NAME    = ARIANE 40+ R/B
OBJECT_ID      = 1995-021B
CENTER_NAME    = EARTH
REF_FRAME      = TEME
TIME_SYSTEM    = UTC
MEAN_ELEMENT_THEORY = SGP/SGP4

EPOCH          = 2026-03-25T10:38:59.744256
MEAN_MOTION    = 14.39783404
ECCENTRICITY   = .00079661
INCLINATION    = 98.4469
RA_OF_ASC_NODE = 155.7108
ARG_OF_PERICENTER = 95.8031
MEAN_ANOMALY   = 276.0236

EPHEMERIS_TYPE = 0
CLASSIFICATION_TYPE = U
NORAD_CAT_ID   = 23561
ELEMENT_SET_NO = 999
REV_AT_EPOCH   = 62151
BSTAR          = .10700703E-3
MEAN_MOTION_DOT = .292E-5
MEAN_MOTION_DDOT = 0

CCSDS_OMM_VERS = 2.0
CREATION_DATE  = 
ORIGINATOR     = 

OBJECT_NAME    = SL-16 R/B
OBJECT_ID      = 1995-058B
CENTER_NAME    = EARTH
REF_FRAME      = TEME
TIME_SYSTEM    = UTC
MEAN_ELEMENT_THEORY = SGP/SGP4

EPOCH          = 2026-03-25T14:29:22.669440
MEAN_MOTION    = 14.15500284
ECCENTRICITY   = .00101296
INCLINATION    = 71.0212
RA_OF_ASC_NODE = 146.8466
ARG_OF_PERICENTER = 96.2802
MEAN_ANOMALY   = 263.9475

EPHEMERIS_TYPE = 0
CLASSIFICATION_TYPE = U
NORAD_CAT_ID   = 23705
ELEMENT_SET_NO = 999
REV_AT_EPOCH   = 57010
BSTAR          = -.78378598E-4
MEAN_MOTION_DOT = -.201E-5
MEAN_MOTION_DDOT = 0

CCSDS_OMM_VERS = 2.0
CREATION_DATE  = 
ORIGINATOR     = 

OBJECT_NAME    = SL-16 R/B
OBJECT_ID      = 1996-051B
CENTER_NAME    = EARTH
REF_FRAME      = TEME
TIME_SYSTEM    = UTC
MEAN_ELEMENT_THEORY = SGP/SGP4

EPOCH          = 2026-03-25T14:31:12.346464
MEAN_MOTION    = 14.12420062
ECCENTRICITY   = .00137571
INCLINATION    = 70.7591
RA_OF_ASC_NODE = 141.5543
ARG_OF_PERICENTER = 122.6136
MEAN_ANOMALY   = 237.6313

EPHEMERIS_TYPE = 0
CLASSIFICATION_TYPE = U
NORAD_CAT_ID   = 24298
ELEMENT_SET_NO = 999
REV_AT_EPOCH   = 52389
BSTAR          = .73444387E-4
MEAN_MOTION_DOT = .86E-6
MEAN_MOTION_DDOT = 0

CCSDS_OMM_VERS = 2.0
CREATION_DATE  = 
ORIGINATOR     = 

OBJECT_NAME    = ORBVIEW 2 (SEASTAR)
OBJECT_ID      = 1997-037A
CENTER_NAME    = EARTH
REF_FRAME      = TEME
TIME_SYSTEM    = UTC
MEAN_ELEMENT_THEORY = SGP/SGP4

EPOCH          = 2026-03-25T09:06:37.321632
MEAN_MOTION    = 14.35505525
ECCENTRICITY   = .00025684
INCLINATION    = 98.8595
RA_OF_ASC_NODE = 249.1094
ARG_OF_PERICENTER = 38.5994
MEAN_ANOMALY   = 321.5373

EPHEMERIS_TYPE = 0
CLASSIFICATION_TYPE = U
NORAD_CAT_ID   = 24883
ELEMENT_SET_NO = 999
REV_AT_EPOCH   = 51072
BSTAR          = .11694908E-3
MEAN_MOTION_DOT = .29E-5
MEAN_MOTION_DDOT = 0

CCSDS_OMM_VERS = 2.0
CREATION_DATE  = 
ORIGINATOR     = 

OBJECT_NAME    = SL-16 R/B
OBJECT_ID      = 1998-043G
CENTER_NAME    = EARTH
REF_FRAME      = TEME
TIME_SYSTEM    = UTC
MEAN_ELEMENT_THEORY = SGP/SGP4

EPOCH          = 2026-03-25T14:07:25.560192
MEAN_MOTION    = 14.26053338
ECCENTRICITY   = .00093688
INCLINATION    = 98.8281
RA_OF_ASC_NODE = 38.0672
ARG_OF_PERICENTER = 334.4546
MEAN_ANOMALY   = 25.6169

EPHEMERIS_TYPE = 0
CLASSIFICATION_TYPE = U
NORAD_CAT_ID   = 25400
ELEMENT_SET_NO = 999
REV_AT_EPOCH   = 44125
BSTAR          = .53275888E-4
MEAN_MOTION_DOT = .82E-6
MEAN_MOTION_DDOT = 0

